start=new Date('2023-03-28T00:00:00.000Z').valueOf();
sats=[{"MEAN_ELEMENT_THEORY":"SGP4","EPHEMERIS_TYPE":"0","OBJECT_NAME":"STARLINK-1210","GP_ID":"228956475","TLE_LINE2":"2 45207  53.0519 186.3477 0000981  90.5194 269.5907 15.06404780172626","DECAY_DATE":null,"OBJECT_TYPE":"PAYLOAD","OBJECT_ID":"2020-012AF","BSTAR":"0.00175890000000","REF_FRAME":"TEME","TLE_LINE1":"1 45207U 20012AF  23086.60091703  .00026018  00000-0  17589-2 0  9997","APOAPSIS":"547.878","PERIOD":"95.592","ARG_OF_PERICENTER":"90.5194","MEAN_MOTION_DOT":"0.00026018","ELEMENT_SET_NO":"999","ECCENTRICITY":"0.00009810","MEAN_ANOMALY":"269.5907","COUNTRY_CODE":"US","INCLINATION":"53.0519","RCS_SIZE":"LARGE","CENTER_NAME":"EARTH","RA_OF_ASC_NODE":"186.3477","SITE":"AFETR","SEMIMAJOR_AXIS":"6925.334","CLASSIFICATION_TYPE":"U","MEAN_MOTION_DDOT":"0.0000000000000","REV_AT_EPOCH":"17262","EPOCH":"2023-03-27T14:25:19.231392","PERIAPSIS":"546.520","FILE":"3872569","NORAD_CAT_ID":"45207","TIME_SYSTEM":"UTC","LAUNCH_DATE":"2020-02-17","MEAN_MOTION":"15.06404780"},{"APOAPSIS":"510.464","PERIOD":"94.816","REF_FRAME":"TEME","OBJECT_ID":"2020-012AG","OBJECT_TYPE":"PAYLOAD","BSTAR":"0.05729000000000","TLE_LINE1":"1 45208U 20012AG  23086.91667824  .01304930  00000-0  57290-1 0  9990","TLE_LINE2":"2 45208  52.9988 184.7120 0001165  84.3382  68.0765 15.18735948  1303","DECAY_DATE":null,"MEAN_ELEMENT_THEORY":"SGP4","OBJECT_NAME":"STARLINK-1211","GP_ID":"228990431","EPHEMERIS_TYPE":"0","FILE":"3872915","NORAD_CAT_ID":"45208","TIME_SYSTEM":"UTC","MEAN_MOTION":"15.18735948","LAUNCH_DATE":"2020-02-17","CLASSIFICATION_TYPE":"U","MEAN_MOTION_DDOT":"0.0000000000000","REV_AT_EPOCH":"130","EPOCH":"2023-03-27T22:00:00.999936","PERIAPSIS":"508.859","CENTER_NAME":"EARTH","RCS_SIZE":"LARGE","INCLINATION":"52.9988","SITE":"AFETR","RA_OF_ASC_NODE":"184.7120","SEMIMAJOR_AXIS":"6887.797","ARG_OF_PERICENTER":"84.3382","MEAN_MOTION_DOT":"0.01304930","ECCENTRICITY":"0.00011650","ELEMENT_SET_NO":"999","COUNTRY_CODE":"US","MEAN_ANOMALY":"68.0765"},{"DECAY_DATE":null,"TLE_LINE2":"2 45210  53.0512 186.6296 0001380  66.1378 293.9755 15.06453588171678","GP_ID":"228932632","OBJECT_NAME":"STARLINK-1219","EPHEMERIS_TYPE":"0","MEAN_ELEMENT_THEORY":"SGP4","APOAPSIS":"548.005","PERIOD":"95.589","TLE_LINE1":"1 45210U 20012AJ  23086.53831718  .00036440  00000-0  24491-2 0  9991","REF_FRAME":"TEME","OBJECT_TYPE":"PAYLOAD","OBJECT_ID":"2020-012AJ","BSTAR":"0.00244910000000","SEMIMAJOR_AXIS":"6925.184","SITE":"AFETR","RA_OF_ASC_NODE":"186.6296","CENTER_NAME":"EARTH","INCLINATION":"53.0512","RCS_SIZE":"LARGE","COUNTRY_CODE":"US","MEAN_ANOMALY":"293.9755","ECCENTRICITY":"0.00013800","ELEMENT_SET_NO":"999","MEAN_MOTION_DOT":"0.00036440","ARG_OF_PERICENTER":"66.1378","MEAN_MOTION":"15.06453588","LAUNCH_DATE":"2020-02-17","TIME_SYSTEM":"UTC","NORAD_CAT_ID":"45210","FILE":"3872407","EPOCH":"2023-03-27T12:55:10.604352","PERIAPSIS":"546.094","REV_AT_EPOCH":"17167","MEAN_MOTION_DDOT":"0.0000000000000","CLASSIFICATION_TYPE":"U"},{"MEAN_ELEMENT_THEORY":"SGP4","OBJECT_NAME":"STARLINK-1231","GP_ID":"228988932","EPHEMERIS_TYPE":"0","DECAY_DATE":null,"TLE_LINE2":"2 45212  53.0520 185.5861 0001387  77.7121 282.4023 15.06439585172602","REF_FRAME":"TEME","OBJECT_ID":"2020-012AL","OBJECT_TYPE":"PAYLOAD","BSTAR":"0.00212530000000","TLE_LINE1":"1 45212U 20012AL  23086.77052811  .00031551  00000-0  21253-2 0  9999","APOAPSIS":"548.053","PERIOD":"95.590","MEAN_MOTION_DOT":"0.00031551","ARG_OF_PERICENTER":"77.7121","COUNTRY_CODE":"US","MEAN_ANOMALY":"282.4023","ECCENTRICITY":"0.00013870","ELEMENT_SET_NO":"999","CENTER_NAME":"EARTH","INCLINATION":"53.0520","RCS_SIZE":"LARGE","SEMIMAJOR_AXIS":"6925.227","SITE":"AFETR","RA_OF_ASC_NODE":"185.5861","MEAN_MOTION_DDOT":"0.0000000000000","CLASSIFICATION_TYPE":"U","EPOCH":"2023-03-27T18:29:33.628704","PERIAPSIS":"546.132","REV_AT_EPOCH":"17260","NORAD_CAT_ID":"45212","TIME_SYSTEM":"UTC","FILE":"3872915","MEAN_MOTION":"15.06439585","LAUNCH_DATE":"2020-02-17"},{"INCLINATION":"53.0539","RCS_SIZE":"LARGE","CENTER_NAME":"EARTH","SEMIMAJOR_AXIS":"6787.871","RA_OF_ASC_NODE":"80.9987","SITE":"AFETR","MEAN_MOTION_DOT":"0.00042365","ARG_OF_PERICENTER":"46.4871","MEAN_ANOMALY":"313.6584","COUNTRY_CODE":"US","ELEMENT_SET_NO":"999","ECCENTRICITY":"0.00053750","NORAD_CAT_ID":"45213","TIME_SYSTEM":"UTC","FILE":"3872569","LAUNCH_DATE":"2020-02-17","MEAN_MOTION":"15.52395388","MEAN_MOTION_DDOT":"0.0000000000000","CLASSIFICATION_TYPE":"U","PERIAPSIS":"406.088","EPOCH":"2023-03-27T11:14:01.913280","REV_AT_EPOCH":"17411","DECAY_DATE":null,"TLE_LINE2":"2 45213  53.0539  80.9987 0005375  46.4871 313.6584 15.52395388174116","MEAN_ELEMENT_THEORY":"SGP4","EPHEMERIS_TYPE":"0","GP_ID":"228955976","OBJECT_NAME":"STARLINK-1232","PERIOD":"92.760","APOAPSIS":"413.385","OBJECT_TYPE":"PAYLOAD","OBJECT_ID":"2020-012AM","BSTAR":"0.00068591000000","REF_FRAME":"TEME","TLE_LINE1":"1 45213U 20012AM  23086.46807770  .00042365  00000-0  68591-3 0  9990"},{"TLE_LINE2":"2 45214  53.0513 185.6982 0001222  55.3711 304.7393 15.06485221172646","DECAY_DATE":null,"MEAN_ELEMENT_THEORY":"SGP4","EPHEMERIS_TYPE":"0","GP_ID":"228989932","OBJECT_NAME":"STARLINK-1233","PERIOD":"95.587","APOAPSIS":"547.799","OBJECT_TYPE":"PAYLOAD","OBJECT_ID":"2020-012AN","BSTAR":"0.00255800000000","REF_FRAME":"TEME","TLE_LINE1":"1 45214U 20012AN  23086.74376686  .00038115  00000-0  25580-2 0  9997","INCLINATION":"53.0513","RCS_SIZE":"LARGE","CENTER_NAME":"EARTH","RA_OF_ASC_NODE":"185.6982","SITE":"AFETR","SEMIMAJOR_AXIS":"6925.087","ARG_OF_PERICENTER":"55.3711","MEAN_MOTION_DOT":"0.00038115","ELEMENT_SET_NO":"999","ECCENTRICITY":"0.00012220","MEAN_ANOMALY":"304.7393","COUNTRY_CODE":"US","FILE":"3872915","TIME_SYSTEM":"UTC","NORAD_CAT_ID":"45214","LAUNCH_DATE":"2020-02-17","MEAN_MOTION":"15.06485221","CLASSIFICATION_TYPE":"U","MEAN_MOTION_DDOT":"0.0000000000000","REV_AT_EPOCH":"17264","EPOCH":"2023-03-27T17:51:01.456704","PERIAPSIS":"546.106"},{"LAUNCH_DATE":"2020-02-17","MEAN_MOTION":"15.06193831","FILE":"3872915","TIME_SYSTEM":"UTC","NORAD_CAT_ID":"45215","REV_AT_EPOCH":"17260","EPOCH":"2023-03-27T20:57:26.385120","PERIAPSIS":"547.018","CLASSIFICATION_TYPE":"U","MEAN_MOTION_DDOT":"0.0000000000000","RA_OF_ASC_NODE":"185.1200","SITE":"AFETR","SEMIMAJOR_AXIS":"6925.981","INCLINATION":"53.0515","RCS_SIZE":"LARGE","CENTER_NAME":"EARTH","ELEMENT_SET_NO":"999","ECCENTRICITY":"0.00011950","MEAN_ANOMALY":"275.0949","COUNTRY_CODE":"US","ARG_OF_PERICENTER":"85.0176","MEAN_MOTION_DOT":"-0.00129128","PERIOD":"95.605","APOAPSIS":"548.673","TLE_LINE1":"1 45215U 20012AP  23086.87322205 -.00129128  00000-0 -88580-2 0  9996","OBJECT_ID":"2020-012AP","OBJECT_TYPE":"PAYLOAD","BSTAR":"-0.00885800000000","REF_FRAME":"TEME","TLE_LINE2":"2 45215  53.0515 185.1200 0001195  85.0176 275.0949 15.06193831172607","DECAY_DATE":null,"EPHEMERIS_TYPE":"0","GP_ID":"228989181","OBJECT_NAME":"STARLINK-1245","MEAN_ELEMENT_THEORY":"SGP4"},{"REV_AT_EPOCH":"17263","EPOCH":"2023-03-27T15:34:22.925280","PERIAPSIS":"546.302","CLASSIFICATION_TYPE":"U","MEAN_MOTION_DDOT":"0.0000000000000","LAUNCH_DATE":"2020-02-17","MEAN_MOTION":"15.06439887","FILE":"3872915","NORAD_CAT_ID":"45217","TIME_SYSTEM":"UTC","ELEMENT_SET_NO":"999","ECCENTRICITY":"0.00011400","MEAN_ANOMALY":"261.8076","COUNTRY_CODE":"US","ARG_OF_PERICENTER":"98.3043","MEAN_MOTION_DOT":"0.00019691","RA_OF_ASC_NODE":"186.1330","SITE":"AFETR","SEMIMAJOR_AXIS":"6925.226","INCLINATION":"53.0530","RCS_SIZE":"LARGE","CENTER_NAME":"EARTH","TLE_LINE1":"1 45217U 20012AR  23086.64887645  .00019691  00000-0  13357-2 0  9998","OBJECT_TYPE":"PAYLOAD","BSTAR":"0.00133570000000","OBJECT_ID":"2020-012AR","REF_FRAME":"TEME","PERIOD":"95.590","APOAPSIS":"547.881","EPHEMERIS_TYPE":"0","GP_ID":"228989431","OBJECT_NAME":"STARLINK-1271","MEAN_ELEMENT_THEORY":"SGP4","TLE_LINE2":"2 45217  53.0530 186.1330 0001140  98.3043 261.8076 15.06439887172632","DECAY_DATE":null},{"LAUNCH_DATE":"2020-02-17","MEAN_MOTION":"15.06398291","FILE":"3872915","NORAD_CAT_ID":"45219","TIME_SYSTEM":"UTC","REV_AT_EPOCH":"17296","PERIAPSIS":"546.320","EPOCH":"2023-03-27T21:53:47.122944","CLASSIFICATION_TYPE":"U","MEAN_MOTION_DDOT":"0.0000000000000","RA_OF_ASC_NODE":"164.9521","SITE":"AFETR","SEMIMAJOR_AXIS":"6925.354","INCLINATION":"53.0548","RCS_SIZE":"LARGE","CENTER_NAME":"EARTH","ELEMENT_SET_NO":"999","ECCENTRICITY":"0.00012980","MEAN_ANOMALY":"290.3675","COUNTRY_CODE":"US","ARG_OF_PERICENTER":"69.7453","MEAN_MOTION_DOT":"0.00004924","PERIOD":"95.592","APOAPSIS":"548.118","TLE_LINE1":"1 45219U 20012AT  23086.91235096  .00004924  00000-0  34921-3 0  9991","BSTAR":"0.00034921000000","OBJECT_TYPE":"PAYLOAD","OBJECT_ID":"2020-012AT","REF_FRAME":"TEME","TLE_LINE2":"2 45219  53.0548 164.9521 0001298  69.7453 290.3675 15.06398291172961","DECAY_DATE":null,"EPHEMERIS_TYPE":"0","GP_ID":"228989682","OBJECT_NAME":"STARLINK-1187","MEAN_ELEMENT_THEORY":"SGP4"},{"RA_OF_ASC_NODE":"164.9338","SITE":"AFETR","SEMIMAJOR_AXIS":"6925.260","INCLINATION":"53.0529","RCS_SIZE":"LARGE","CENTER_NAME":"EARTH","ELEMENT_SET_NO":"999","ECCENTRICITY":"0.00011230","MEAN_ANOMALY":"265.0770","COUNTRY_CODE":"US","ARG_OF_PERICENTER":"95.0347","MEAN_MOTION_DOT":"0.00028372","LAUNCH_DATE":"2020-02-17","MEAN_MOTION":"15.06428748","FILE":"3872915","NORAD_CAT_ID":"45221","TIME_SYSTEM":"UTC","REV_AT_EPOCH":"17295","EPOCH":"2023-03-27T21:59:08.244096","PERIAPSIS":"546.348","CLASSIFICATION_TYPE":"U","MEAN_MOTION_DDOT":"0.0000000000000","TLE_LINE2":"2 45221  53.0529 164.9338 0001123  95.0347 265.0770 15.06428748172955","DECAY_DATE":null,"EPHEMERIS_TYPE":"0","OBJECT_NAME":"STARLINK-1189","GP_ID":"228990432","MEAN_ELEMENT_THEORY":"SGP4","PERIOD":"95.590","APOAPSIS":"547.903","TLE_LINE1":"1 45221U 20012AV  23086.91606764  .00028372  00000-0  19145-2 0  9991","OBJECT_TYPE":"PAYLOAD","OBJECT_ID":"2020-012AV","BSTAR":"0.00191450000000","REF_FRAME":"TEME"}];
